OBJECT_NAME,OBJECT_ID,EPOCH,MEAN_MOTION,ECCENTRICITY,INCLINATION,RA_OF_ASC_NODE,ARG_OF_PERICENTER,MEAN_ANOMALY,EPHEMERIS_TYPE,CLASSIFICATION_TYPE,NORAD_CAT_ID,ELEMENT_SET_NO,REV_AT_EPOCH,BSTAR,MEAN_MOTION_DOT,MEAN_MOTION_DDOT
GSAT-16,2014-078A,2026-06-15T11:36:41.838048,1.00270851,.00075425,0.0856,90.2286,358.5800,44.2201,0,U,40332,999,4209,0,.88E-6,0
DIRECTV 14,2014-078B,2026-06-15T09:11:22.190208,1.00272172,.00003307,0.0133,23.6782,263.2070,15.3817,0,U,40333,999,4202,0,-.122E-5,0
YAMAL 401,2014-082A,2026-06-15T14:21:05.223168,1.00268356,.0000076,0.0218,309.2308,131.3578,128.5152,0,U,40345,999,4190,0,0,0
ASTRA 2G,2014-089A,2026-06-15T13:11:43.893312,1.00272816,.00044772,0.0459,350.4480,78.7580,60.7636,0,U,40364,999,4195,0,.152E-5,0
FENGYUN 2G,2014-090A,2026-06-14T18:42:51.437664,1.00273198,.0003942,5.6329,72.8457,155.9654,54.6513,0,U,40367,999,4197,0,-.301E-5,0
MUOS-3,2015-002A,2026-06-15T09:33:59.173056,1.00271613,.00518627,4.5174,43.5167,178.1113,170.1208,0,U,40374,999,4156,0,-.128E-5,0
INMARSAT 5-F2,2015-005A,2026-06-15T07:26:38.806368,1.00270914,.00006789,0.0171,1.8040,285.5670,32.8905,0,U,40384,999,4097,0,-.282E-5,0
ABS-3A,2015-010A,2026-06-14T14:48:14.217408,1.00272172,.0002129,0.0373,52.4733,342.4445,87.0276,0,U,40424,999,4135,0,0,0
EUTELSAT 115 WEST B,2015-010B,2026-06-14T22:49:40.122912,1.00269789,.00002444,0.0430,168.0991,255.4768,67.1796,0,U,40425,999,4137,0,-.19E-6,0
EXPRESS-AM7,2015-012A,2026-06-15T13:15:06.070176,1.00269618,.00028047,0.0174,3.1137,87.8350,51.6445,0,U,40505,999,4099,0,.153E-5,0
BEIDOU-3S IGSO-1S,2015-019A,2026-06-14T20:12:21.455136,1.00250661,.00391338,49.1999,295.4904,191.2000,171.1730,0,U,40549,999,4105,0,-.179E-5,0
THOR 7,2015-022A,2026-06-15T13:03:22.195296,1.00271874,.00023517,0.0431,109.7962,335.2013,14.0193,0,U,40613,999,4080,0,-.6E-7,0
TURKMENALEM52E/MONACOSAT,2015-023A,2026-06-15T13:18:28.247040,1.00270172,.00026303,0.0328,71.8531,6.1977,77.4121,0,U,40617,999,4083,0,.106E-5,0
DIRECTV 15,2015-026A,2026-06-15T06:39:39.874176,1.00276521,.00002776,0.0162,20.7674,308.0997,291.7459,0,U,40663,999,4044,0,-.1E-5,0
SKY MEXICO-1,2015-026B,2026-06-15T10:58:29.999424,1.00270557,.00019822,0.0174,358.4859,107.5996,243.4824,0,U,40664,999,4043,0,-.231E-5,0
METEOSAT-11 (MSG-4),2015-034A,2026-06-15T06:15:43.595136,1.00279763,.0001755,3.1967,71.1216,10.4371,285.5308,0,U,40732,999,719,0,.67E-6,0
STAR ONE C4,2015-034B,2026-06-15T11:00:59.760000,1.00270048,.00019818,0.0358,39.7487,34.8687,284.3792,0,U,40733,999,3999,0,-.262E-5,0
WGS F7 (USA 263),2015-036A,2026-06-15T12:12:38.850336,1.00270317,.00001286,0.0023,354.1013,271.5631,356.2843,0,U,40746,999,3985,0,.2E-6,0
INTELSAT 34 (IS-34),2015-039A,2026-06-15T11:05:06.864864,1.00272990,.00005649,0.0113,328.2513,9.4719,36.8219,0,U,40874,999,3961,0,-.283E-5,0
EUTELSAT 8 WEST B,2015-039B,2026-06-15T09:35:58.981344,1.00271807,.00039079,0.0658,11.0149,69.8839,318.7863,0,U,40875,999,3963,0,-.63E-6,0
GSAT-6,2015-041A,2026-06-15T13:27:15.007104,1.00272350,.00033192,1.9153,82.6164,356.1370,109.4350,0,U,40880,999,3958,0,-.159E-5,0
INMARSAT 5-F3,2015-042A,2026-06-15T05:21:38.451744,1.00270111,.0000073,0.0176,8.4624,343.8922,171.1985,0,U,40882,999,3955,0,.54E-6,0
MUOS-4,2015-044A,2026-06-15T06:01:38.676576,1.00270758,.00577831,4.3262,42.2338,2.1002,24.5996,0,U,40887,999,3954,0,-.92E-6,0
TJS-1,2015-046A,2026-06-15T14:27:38.714688,1.00270944,.00054664,0.3197,84.9306,358.6659,192.2605,0,U,40892,999,3955,0,-.154E-5,0
EXPRESS-AM8,2015-048A,2026-06-15T16:25:02.055648,1.00271646,.0000456,0.0140,306.0638,354.0052,196.1540,0,U,40895,999,3933,0,-.11E-5,0
BEIDOU-3S IGSO-2S,2015-053A,2026-06-14T19:46:42.792960,1.00259392,.00657166,49.2253,258.8113,192.1261,204.1557,0,U,40938,999,3933,0,-.131E-5,0
SKY MUSTER 1 (NBN1A),2015-054A,2026-06-15T13:43:41.839392,1.00269874,.00015166,0.0249,340.6579,107.5001,161.8598,0,U,40940,999,3924,0,0,0
ARSAT 2,2015-054B,2026-06-15T10:57:52.558848,1.00271031,.00019391,0.0317,53.9531,14.0954,279.1614,0,U,40941,999,3928,0,-.222E-5,0
MORELOS 3,2015-056A,2026-06-15T12:31:25.256640,1.00273090,.00011226,3.1854,15.0288,4.2938,319.2458,0,U,40946,999,3926,0,-.43E-6,0
APSTAR-9,2015-059A,2026-06-15T13:44:11.790816,1.00272070,.00022396,0.0304,42.4747,146.6925,62.7484,0,U,40982,999,3910,0,-.263E-5,0
TURKSAT 4B,2015-060A,2026-06-15T09:52:27.401664,1.00270937,.00021412,0.0346,74.0024,353.4929,34.2877,0,U,40984,999,3908,0,.118E-5,0
ZHONGXING-2C,2015-063A,2026-06-15T15:09:38.739168,1.00271539,.00075914,0.2688,89.9766,98.8852,45.9194,0,U,41021,999,3896,0,-.322E-5,0
