GSAT-16                 
1 40332U 14078A   26166.48381757  .00000088  00000+0  00000+0 0  9990
2 40332   0.0856  90.2286 0007542 358.5800  44.2201  1.00270851 42099
DIRECTV 14              
1 40333U 14078B   26166.38289572 -.00000122  00000+0  00000+0 0  9992
2 40333   0.0133  23.6782 0000330 263.2070  15.3817  1.00272172 42021
YAMAL 401               
1 40345U 14082A   26166.59797712  .00000000  00000+0  00000+0 0  9997
2 40345   0.0218 309.2308 0000076 131.3578 128.5152  1.00268356 41904
ASTRA 2G                
1 40364U 14089A   26166.54981358  .00000152  00000+0  00000+0 0  9999
2 40364   0.0459 350.4480 0004477  78.7580  60.7636  1.00272816 41952
FENGYUN 2G              
1 40367U 14090A   26165.77976201 -.00000301  00000+0  00000+0 0  9996
2 40367   5.6329  72.8457 0003942 155.9654  54.6513  1.00273198 41979
MUOS-3                  
1 40374U 15002A   26166.39860154 -.00000128  00000+0  00000+0 0  9993
2 40374   4.5174  43.5167 0051862 178.1113 170.1208  1.00271613 41567
INMARSAT 5-F2           
1 40384U 15005A   26166.31017137 -.00000282  00000+0  00000+0 0  9995
2 40384   0.0171   1.8040 0000678 285.5670  32.8905  1.00270914 40978
ABS-3A                  
1 40424U 15010A   26165.61683122  .00000000  00000+0  00000+0 0  9998
2 40424   0.0373  52.4733 0002129 342.4445  87.0276  1.00272172 41358
EUTELSAT 115 WEST B     
1 40425U 15010B   26165.95115883 -.00000019  00000+0  00000+0 0  9991
2 40425   0.0430 168.0991 0000244 255.4768  67.1796  1.00269789 41378
EXPRESS-AM7             
1 40505U 15012A   26166.55215359  .00000153  00000+0  00000+0 0  9996
2 40505   0.0174   3.1137 0002804  87.8350  51.6445  1.00269618 40998
BEIDOU-3S IGSO-1S       
1 40549U 15019A   26165.84191499 -.00000179  00000+0  00000+0 0  9999
2 40549  49.1999 295.4904 0039133 191.2000 171.1730  1.00250661 41051
THOR 7                  
1 40613U 15022A   26166.54400689 -.00000006  00000+0  00000+0 0  9996
2 40613   0.0431 109.7962 0002351 335.2013  14.0193  1.00271874 40806
TURKMENALEM52E/MONACOSAT
1 40617U 15023A   26166.55449360  .00000106  00000+0  00000+0 0  9991
2 40617   0.0328  71.8531 0002630   6.1977  77.4121  1.00270172 40836
DIRECTV 15              
1 40663U 15026A   26166.27754484 -.00000100  00000+0  00000+0 0  9995
2 40663   0.0162  20.7674 0000277 308.0997 291.7459  1.00276521 40441
SKY MEXICO-1            
1 40664U 15026B   26166.45729166 -.00000231  00000+0  00000+0 0  9990
2 40664   0.0174 358.4859 0001982 107.5996 243.4824  1.00270557 40438
METEOSAT-11 (MSG-4)     
1 40732U 15034A   26166.26092124  .00000067  00000+0  00000+0 0  9997
2 40732   3.1967  71.1216 0001755  10.4371 285.5308  1.00279763  7199
STAR ONE C4             
1 40733U 15034B   26166.45902500 -.00000262  00000+0  00000+0 0  9995
2 40733   0.0358  39.7487 0001981  34.8687 284.3792  1.00270048 39995
WGS F7 (USA 263)        
1 40746U 15036A   26166.50878299  .00000020  00000+0  00000+0 0  9995
2 40746   0.0023 354.1013 0000128 271.5631 356.2843  1.00270317 39858
INTELSAT 34 (IS-34)     
1 40874U 15039A   26166.46188501 -.00000283  00000+0  00000+0 0  9997
2 40874   0.0113 328.2513 0000564   9.4719  36.8219  1.00272990 39617
EUTELSAT 8 WEST B       
1 40875U 15039B   26166.39998821 -.00000063  00000+0  00000+0 0  9990
2 40875   0.0658  11.0149 0003907  69.8839 318.7863  1.00271807 39636
GSAT-6                  
1 40880U 15041A   26166.56059036 -.00000159  00000+0  00000+0 0  9990
2 40880   1.9153  82.6164 0003319 356.1370 109.4350  1.00272350 39586
INMARSAT 5-F3           
1 40882U 15042A   26166.22336171  .00000054  00000+0  00000+0 0  9997
2 40882   0.0176   8.4624 0000073 343.8922 171.1985  1.00270111 39550
MUOS-4                  
1 40887U 15044A   26166.25114209 -.00000092  00000+0  00000+0 0  9996
2 40887   4.3262  42.2338 0057783   2.1002  24.5996  1.00270758 39549
TJS-1                   
1 40892U 15046A   26166.60253142 -.00000154  00000+0  00000+0 0  9992
2 40892   0.3197  84.9306 0005466 358.6659 192.2605  1.00270944 39552
EXPRESS-AM8             
1 40895U 15048A   26166.68405157 -.00000110  00000+0  00000+0 0  9992
2 40895   0.0140 306.0638 0000456 354.0052 196.1540  1.00271646 39334
BEIDOU-3S IGSO-2S       
1 40938U 15053A   26165.82410640 -.00000131  00000+0  00000+0 0  9997
2 40938  49.2253 258.8113 0065716 192.1261 204.1557  1.00259392 39339
SKY MUSTER 1 (NBN1A)    
1 40940U 15054A   26166.57201203  .00000000  00000+0  00000+0 0  9991
2 40940   0.0249 340.6579 0001516 107.5001 161.8598  1.00269874 39248
ARSAT 2                 
1 40941U 15054B   26166.45685832 -.00000222  00000+0  00000+0 0  9990
2 40941   0.0317  53.9531 0001939  14.0954 279.1614  1.00271031 39289
MORELOS 3               
1 40946U 15056A   26166.52182010 -.00000043  00000+0  00000+0 0  9996
2 40946   3.1854  15.0288 0001122   4.2938 319.2458  1.00273090 39266
APSTAR-9                
1 40982U 15059A   26166.57235869 -.00000263  00000+0  00000+0 0  9999
2 40982   0.0304  42.4747 0002239 146.6925  62.7484  1.00272070 39102
TURKSAT 4B              
1 40984U 15060A   26166.41142826  .00000118  00000+0  00000+0 0  9994
2 40984   0.0346  74.0024 0002141 353.4929  34.2877  1.00270937 39080
ZHONGXING-2C            
1 41021U 15063A   26166.63169837 -.00000322  00000+0  00000+0 0  9993
2 41021   0.2688  89.9766 0007591  98.8852  45.9194  1.00271539 38967
